{
  "type": "FeatureCollection",
  "features": [
    {
      "type": "Feature",
      "properties": {
        "norad_id": 66582,
        "name": "STARLINK-35746",
        "group": "last-30-days",
        "lat": -41.65295715752248,
        "lon": -73.09153788541288,
        "alt_km": 448.53473091677097,
        "timestamp": "2025-12-27T13:34:48.004871+00:00",
        "meta_object_name": "STARLINK-35746",
        "meta_object_id": "2025-268AB",
        "meta_epoch": "2025-12-27T06:00:02.000160",
        "meta_mean_motion": 15.41483064,
        "meta_eccentricity": 9.842e-05,
        "meta_inclination": 43.0005,
        "meta_ra_of_asc_node": 36.0739,
        "meta_arg_of_pericenter": 272.31,
        "meta_mean_anomaly": 30.9868,
        "meta_ephemeris_type": 0,
        "meta_classification_type": "U",
        "meta_norad_cat_id": 66582,
        "meta_element_set_no": 999,
        "meta_rev_at_epoch": 607,
        "meta_bstar": -0.053095663,
        "meta_mean_motion_dot": -0.02024525,
        "meta_mean_motion_ddot": 0,
        "tle_line1": "1 66582U 25268AB  25361.25002315 -.02024525  00000+0 -53096-1 0  9990",
        "tle_line2": "2 66582  43.0005  36.0739 0000984 272.3100  30.9868 15.41483064  6078"
      },
      "geometry": {
        "type": "Point",
        "coordinates": [
          -73.09153788541288,
          -41.65295715752248
        ]
      }
    },
    {
      "type": "Feature",
      "properties": {
        "norad_id": 66583,
        "name": "STARLINK-35941",
        "group": "last-30-days",
        "lat": -42.97904763013061,
        "lon": -56.17078770153108,
        "alt_km": 445.9297704107739,
        "timestamp": "2025-12-27T13:34:48.004882+00:00",
        "meta_object_name": "STARLINK-35941",
        "meta_object_id": "2025-268AC",
        "meta_epoch": "2025-12-27T06:00:02.000160",
        "meta_mean_motion": 15.42303726,
        "meta_eccentricity": 0.00012589,
        "meta_inclination": 43,
        "meta_ra_of_asc_node": 36.0468,
        "meta_arg_of_pericenter": 256.239,
        "meta_mean_anomaly": 58.7124,
        "meta_ephemeris_type": 0,
        "meta_classification_type": "U",
        "meta_norad_cat_id": 66583,
        "meta_element_set_no": 999,
        "meta_rev_at_epoch": 606,
        "meta_bstar": -0.05143004,
        "meta_mean_motion_dot": -0.02017219,
        "meta_mean_motion_ddot": 0,
        "tle_line1": "1 66583U 25268AC  25361.25002315 -.02017219  00000+0 -51430-1 0  9993",
        "tle_line2": "2 66583  43.0000  36.0468 0001258 256.2390  58.7124 15.42303726  6069"
      },
      "geometry": {
        "type": "Point",
        "coordinates": [
          -56.17078770153108,
          -42.97904763013061
        ]
      }
    },
    {
      "type": "Feature",
      "properties": {
        "norad_id": 66584,
        "name": "STARLINK-35939",
        "group": "last-30-days",
        "lat": -41.90561814010161,
        "lon": -40.18063504192316,
        "alt_km": 443.5102269496774,
        "timestamp": "2025-12-27T13:34:48.004892+00:00",
        "meta_object_name": "STARLINK-35939",
        "meta_object_id": "2025-268AD",
        "meta_epoch": "2025-12-27T06:00:02.000160",
        "meta_mean_motion": 15.4316723,
        "meta_eccentricity": 0.00012488,
        "meta_inclination": 43.0004,
        "meta_ra_of_asc_node": 36.0186,
        "meta_arg_of_pericenter": 263.1073,
        "meta_mean_anomaly": 62.7595,
        "meta_ephemeris_type": 0,
        "meta_classification_type": "U",
        "meta_norad_cat_id": 66584,
        "meta_element_set_no": 999,
        "meta_rev_at_epoch": 607,
        "meta_bstar": -0.051801568,
        "meta_mean_motion_dot": -0.02083781,
        "meta_mean_motion_ddot": 0,
        "tle_line1": "1 66584U 25268AD  25361.25002315 -.02083781  00000+0 -51802-1 0  9994",
        "tle_line2": "2 66584  43.0004  36.0186 0001248 263.1073  62.7595 15.43167230  6072"
      },
      "geometry": {
        "type": "Point",
        "coordinates": [
          -40.18063504192316,
          -41.90561814010161
        ]
      }
    },
    {
      "type": "Feature",
      "properties": {
        "norad_id": 66585,
        "name": "STARLINK-35963",
        "group": "last-30-days",
        "lat": 35.03687278027104,
        "lon": 83.53674962292183,
        "alt_km": 475.8320135976337,
        "timestamp": "2025-12-27T13:34:48.004903+00:00",
        "meta_object_name": "STARLINK-35963",
        "meta_object_id": "2025-268AE",
        "meta_epoch": "2025-12-27T06:00:02.000160",
        "meta_mean_motion": 15.30694932,
        "meta_eccentricity": 7.027e-05,
        "meta_inclination": 43.0013,
        "meta_ra_of_asc_node": 36.5271,
        "meta_arg_of_pericenter": 303.7559,
        "meta_mean_anomaly": 172.7229,
        "meta_ephemeris_type": 0,
        "meta_classification_type": "U",
        "meta_norad_cat_id": 66585,
        "meta_element_set_no": 999,
        "meta_rev_at_epoch": 606,
        "meta_bstar": -0.13279225,
        "meta_mean_motion_dot": -0.03531982,
        "meta_mean_motion_ddot": 0,
        "tle_line1": "1 66585U 25268AE  25361.25002315 -.03531982  00000+0 -13279+0 0  9991",
        "tle_line2": "2 66585  43.0013  36.5271 0000702 303.7559 172.7229 15.30694932  6062"
      },
      "geometry": {
        "type": "Point",
        "coordinates": [
          83.53674962292183,
          35.03687278027104
        ]
      }
    },
    {
      "type": "Feature",
      "properties": {
        "norad_id": 66586,
        "name": "TJS-21",
        "group": "last-30-days",
        "lat": 44.356930044873884,
        "lon": -48.7516585616956,
        "alt_km": 24006.468705381798,
        "timestamp": "2025-12-27T13:34:48.004917+00:00",
        "meta_object_name": "TJS-21",
        "meta_object_id": "2025-269A",
        "meta_epoch": "2025-12-18T16:58:10.473888",
        "meta_mean_motion": 2.00580748,
        "meta_eccentricity": 0.6806869,
        "meta_inclination": 63.2733,
        "meta_ra_of_asc_node": 161.7218,
        "meta_arg_of_pericenter": 269.7428,
        "meta_mean_anomaly": 18.6663,
        "meta_ephemeris_type": 0,
        "meta_classification_type": "U",
        "meta_norad_cat_id": 66586,
        "meta_element_set_no": 999,
        "meta_rev_at_epoch": 55,
        "meta_bstar": -0.059507049,
        "meta_mean_motion_dot": 1.084e-05,
        "meta_mean_motion_ddot": 0,
        "tle_line1": "1 66586U 25269A   25352.70706567  .00001084  00000+0 -59507-1 0  9990",
        "tle_line2": "2 66586  63.2733 161.7218 6806869 269.7428  18.6663  2.00580748   558"
      },
      "geometry": {
        "type": "Point",
        "coordinates": [
          -48.7516585616956,
          44.356930044873884
        ]
      }
    },
    {
      "type": "Feature",
      "properties": {
        "norad_id": 66588,
        "name": "STARLINK-36076",
        "group": "last-30-days",
        "lat": -42.58964472906743,
        "lon": 7.946177387019008,
        "alt_km": 446.5505234075554,
        "timestamp": "2025-12-27T13:34:48.004932+00:00",
        "meta_object_name": "STARLINK-36076",
        "meta_object_id": "2025-270A",
        "meta_epoch": "2025-12-27T07:46:33.455712",
        "meta_mean_motion": 15.40751405,
        "meta_eccentricity": 0.00010632,
        "meta_inclination": 42.9964,
        "meta_ra_of_asc_node": 108.7447,
        "meta_arg_of_pericenter": 227.5202,
        "meta_mean_anomaly": 132.5564,
        "meta_ephemeris_type": 0,
        "meta_classification_type": "U",
        "meta_norad_cat_id": 66588,
        "meta_element_set_no": 999,
        "meta_rev_at_epoch": 659,
        "meta_bstar": 0.0015992971,
        "meta_mean_motion_dot": 0.00067208,
        "meta_mean_motion_ddot": 0,
        "tle_line1": "1 66588U 25270A   25361.32399833  .00067208  00000+0  15993-2 0  9997",
        "tle_line2": "2 66588  42.9964 108.7447 0001063 227.5202 132.5564 15.40751405  6598"
      },
      "geometry": {
        "type": "Point",
        "coordinates": [
          7.946177387019008,
          -42.58964472906743
        ]
      }
    },
    {
      "type": "Feature",
      "properties": {
        "norad_id": 66589,
        "name": "STARLINK-35447",
        "group": "last-30-days",
        "lat": 2.0041009253154565,
        "lon": 109.25896941690648,
        "alt_km": 443.20583398971576,
        "timestamp": "2025-12-27T13:34:48.004943+00:00",
        "meta_object_name": "STARLINK-35447",
        "meta_object_id": "2025-270B",
        "meta_epoch": "2025-12-25T14:53:33.760896",
        "meta_mean_motion": 15.4069884,
        "meta_eccentricity": 0.0001173,
        "meta_inclination": 43.0008,
        "meta_ra_of_asc_node": 118.3206,
        "meta_arg_of_pericenter": 257.0782,
        "meta_mean_anomaly": 102.9943,
        "meta_ephemeris_type": 0,
        "meta_classification_type": "U",
        "meta_norad_cat_id": 66589,
        "meta_element_set_no": 999,
        "meta_rev_at_epoch": 644,
        "meta_bstar": 0.00080611,
        "meta_mean_motion_dot": 0.00033516,
        "meta_mean_motion_ddot": 0,
        "tle_line1": "1 66589U 25270B   25359.62052964  .00033516  00000+0  80611-3 0  9994",
        "tle_line2": "2 66589  43.0008 118.3206 0001173 257.0782 102.9943 15.40698840  6442"
      },
      "geometry": {
        "type": "Point",
        "coordinates": [
          109.25896941690648,
          2.0041009253154565
        ]
      }
    }
  ]
}